IRIDIUM 112             
1 41925U 17003J   24225.37896033 -.00000014  00000+0 -11907-4 0  9994
2 41925  86.3991   9.8748 0002290  99.0423 261.1031 14.34217297396692
IRIDIUM 111             
1 41926U 17003K   24225.43603775  .00001075  00000+0  37676-3 0  9997
2 41926  86.3983   9.9055 0002711  92.4553 267.6953 14.34221237396687
IRIDIUM 113             
1 42803U 17039A   24225.48577657 -.00000029  00000+0 -17471-4 0  9997
2 42803  86.3936 243.6483 0002514  89.6840 270.4644 14.34216347374625
IRIDIUM 123             
1 42804U 17039B   24225.45748066  .00001027  00000+0  35972-3 0  9991
2 42804  86.3934 275.1694 0002337  90.1872 269.9591 14.34224440373382
IRIDIUM 120             
1 42805U 17039C   24225.47943251  .00000019  00000+0 -37737-6 0  9992
2 42805  86.3926 243.5208 0002112  90.7355 269.4083 14.34217534374611
IRIDIUM 115             
1 42806U 17039D   24225.56941363  .00000723  00000+0  20897-3 0  9992
2 42806  86.4461 243.5160 0002684  87.2906 272.8602 14.43294229377109
IRIDIUM 118             
1 42807U 17039E   24225.21012474  .00000345  00000+0  11629-3 0  9990
2 42807  86.3935 275.2736 0002225  94.3207 265.8243 14.34219552373341
IRIDIUM 117             
1 42808U 17039F   24225.57799593  .00000228  00000+0  74234-4 0  9996
2 42808  86.3933 275.0838 0002421  90.1574 269.9899 14.34219020373421
